{"type": "FeatureCollection", "features": [ {"type": "Feature", "properties": {"norad_id": 66697, "name": "IRIDE FM3", "group": "last-30-days", "lat": 70.67994122911922, "lon": -86.17873618223123, "alt_km": 503.62664763430075, "timestamp": "2025-12-26T09:30:52.341065+00:00", "meta": {"OBJECT_NAME": "IRIDE FM3", "OBJECT_ID": "2025-276AH", "EPOCH": "2025-12-26T04:17:44.805120", "MEAN_MOTION": 15.18215864, "ECCENTRICITY": 0.000149, "INCLINATION": 97.4382, "RA_OF_ASC_NODE": 71.7284, "ARG_OF_PERICENTER": 148.9417, "MEAN_ANOMALY": 211.1906, "EPHEMERIS_TYPE": 0, "CLASSIFICATION_TYPE": "U", "NORAD_CAT_ID": 66697, "ELEMENT_SET_NO": 999, "REV_AT_EPOCH": 416, "BSTAR": 0.00030457, "MEAN_MOTION_DOT": 6.165e-05, "MEAN_MOTION_DDOT": 0}, "tle": {"line1": "1 66697U 25276AH  25360.17899080  .00006165  00000+0  30457-3 0  9993", "line2": "2 66697  97.4382  71.7284 0001490 148.9417 211.1906 15.18215864  4168"}}, "geometry": {"type": "Point", "coordinates": [-86.17873618223123, 70.67994122911922]}}, {"type": "Feature", "properties": {"norad_id": 66698, "name": "IRIDE FM4", "group": "last-30-days", "lat": 27.56082470427743, "lon": 67.99965875468877, "alt_km": 514.2229227897342, "timestamp": "2025-12-26T09:30:52.341075+00:00", "meta": {"OBJECT_NAME": "IRIDE FM4", "OBJECT_ID": "2025-276AJ", "EPOCH": "2025-12-26T04:00:01.998720", "MEAN_MOTION": 15.17368539, "ECCENTRICITY": 0.0002685, "INCLINATION": 97.4386, "RA_OF_ASC_NODE": 71.6841, "ARG_OF_PERICENTER": 241.6593, "MEAN_ANOMALY": 332.0208, "EPHEMERIS_TYPE": 0, "CLASSIFICATION_TYPE": "U", "NORAD_CAT_ID": 66698, "ELEMENT_SET_NO": 999, "REV_AT_EPOCH": 130, "BSTAR": 0.0025434, "MEAN_MOTION_DOT": 0.0005104, "MEAN_MOTION_DDOT": 0}, "tle": {"line1": "1 66698U 25276AJ  25360.16668980  .00051040  00000+0  25434-2 0  9996", "line2": "2 66698  97.4386  71.6841 0002685 241.6593 332.0208 15.17368539  1302"}}, "geometry": {"type": "Point", "coordinates": [67.99965875468877, 27.56082470427743]}}, {"type": "Feature", "properties": {"norad_id": 66699, "name": "IRIDE FM5", "group": "last-30-days", "lat": 29.262413937590065, "lon": 67.71572279561406, "alt_km": 514.865209571075, "timestamp": "2025-12-26T09:30:52.341087+00:00", "meta": {"OBJECT_NAME": "IRIDE FM5", "OBJECT_ID": "2025-276AK", "EPOCH": "2025-12-26T03:03:15.302016", "MEAN_MOTION": 15.17444242, "ECCENTRICITY": 0.0003943, "INCLINATION": 97.4398, "RA_OF_ASC_NODE": 71.6502, "ARG_OF_PERICENTER": 198.7865, "MEAN_ANOMALY": 161.3224, "EPHEMERIS_TYPE": 0, "CLASSIFICATION_TYPE": "U", "NORAD_CAT_ID": 66699, "ELEMENT_SET_NO": 999, "REV_AT_EPOCH": 415, "BSTAR": 0.00098727, "MEAN_MOTION_DOT": 0.00019731, "MEAN_MOTION_DDOT": 0}, "tle": {"line1": "1 66699U 25276AK  25360.12726044  .00019731  00000+0  98727-3 0  9996", "line2": "2 66699  97.4398  71.6502 0003943 198.7865 161.3224 15.17444242  4155"}}, "geometry": {"type": "Point", "coordinates": [67.71572279561406, 29.262413937590065]}}, {"type": "Feature", "properties": {"norad_id": 66700, "name": "IRIDE FM6", "group": "last-30-days", "lat": 67.052100774734, "lon": -90.06395829266076, "alt_km": 502.5768685374369, "timestamp": "2025-12-26T09:30:52.341097+00:00", "meta": {"OBJECT_NAME": "IRIDE FM6", "OBJECT_ID": "2025-276AL", "EPOCH": "2025-12-26T02:41:48.736896", "MEAN_MOTION": 15.18212155, "ECCENTRICITY": 0.0004224, "INCLINATION": 97.4412, "RA_OF_ASC_NODE": 71.6764, "ARG_OF_PERICENTER": 155.9782, "MEAN_ANOMALY": 204.165, "EPHEMERIS_TYPE": 0, "CLASSIFICATION_TYPE": "U", "NORAD_CAT_ID": 66700, "ELEMENT_SET_NO": 999, "REV_AT_EPOCH": 415, "BSTAR": 0.0011173, "MEAN_MOTION_DOT": 0.00022847, "MEAN_MOTION_DDOT": 0}, "tle": {"line1": "1 66700U 25276AL  25360.11236964  .00022847  00000+0  11173-2 0  9996", "line2": "2 66700  97.4412  71.6764 0004224 155.9782 204.1650 15.18212155  4157"}}, "geometry": {"type": "Point", "coordinates": [-90.06395829266076, 67.052100774734]}}, {"type": "Feature", "properties": {"norad_id": 66701, "name": "IRIDE FM7", "group": "last-30-days", "lat": 28.965927614307688, "lon": 67.77202298343177, "alt_km": 514.4595659098522, "timestamp": "2025-12-26T09:30:52.341108+00:00", "meta": {"OBJECT_NAME": "IRIDE FM7", "OBJECT_ID": "2025-276AM", "EPOCH": "2025-12-26T03:03:17.659008", "MEAN_MOTION": 15.17303257, "ECCENTRICITY": 0.0002663, "INCLINATION": 97.4415, "RA_OF_ASC_NODE": 71.6566, "ARG_OF_PERICENTER": 237.9367, "MEAN_ANOMALY": 122.1608, "EPHEMERIS_TYPE": 0, "CLASSIFICATION_TYPE": "U", "NORAD_CAT_ID": 66701, "ELEMENT_SET_NO": 999, "REV_AT_EPOCH": 415, "BSTAR": -0.0040109, "MEAN_MOTION_DOT": -0.0007909, "MEAN_MOTION_DDOT": 0}, "tle": {"line1": "1 66701U 25276AM  25360.12728772 -.00079090  00000+0 -40109-2 0  9996", "line2": "2 66701  97.4415  71.6566 0002663 237.9367 122.1608 15.17303257  4151"}}, "geometry": {"type": "Point", "coordinates": [67.77202298343177, 28.965927614307688]}}, {"type": "Feature", "properties": {"norad_id": 66702, "name": "IRIDE FM8", "group": "last-30-days", "lat": 30.216801664153863, "lon": 67.54828175697695, "alt_km": 513.7214623254167, "timestamp": "2025-12-26T09:30:52.341117+00:00", "meta": {"OBJECT_NAME": "IRIDE FM8", "OBJECT_ID": "2025-276AN", "EPOCH": "2025-12-26T03:03:00.148320", "MEAN_MOTION": 15.17441235, "ECCENTRICITY": 0.0002835, "INCLINATION": 97.4393, "RA_OF_ASC_NODE": 71.6482, "ARG_OF_PERICENTER": 244.1084, "MEAN_ANOMALY": 115.9858, "EPHEMERIS_TYPE": 0, "CLASSIFICATION_TYPE": "U", "NORAD_CAT_ID": 66702, "ELEMENT_SET_NO": 999, "REV_AT_EPOCH": 415, "BSTAR": 0.0004895, "MEAN_MOTION_DOT": 9.735e-05, "MEAN_MOTION_DDOT": 0}, "tle": {"line1": "1 66702U 25276AN  25360.12708505  .00009735  00000+0  48950-3 0  9999", "line2": "2 66702  97.4393  71.6482 0002835 244.1084 115.9858 15.17441235  4157"}}, "geometry": {"type": "Point", "coordinates": [67.54828175697695, 30.216801664153863]}}, {"type": "Feature", "properties": {"norad_id": 66703, "name": "PELICAN-6", "group": "last-30-days", "lat": 36.22519097590949, "lon": 66.42425249798744, "alt_km": 512.1486091619836, "timestamp": "2025-12-26T09:30:52.341129+00:00", "meta": {"OBJECT_NAME": "PELICAN-6", "OBJECT_ID": "2025-276AP", "EPOCH": "2025-12-26T04:36:20.489184", "MEAN_MOTION": 15.17356954, "ECCENTRICITY": 0.000112, "INCLINATION": 97.4401, "RA_OF_ASC_NODE": 71.7168, "ARG_OF_PERICENTER": 213.885, "MEAN_ANOMALY": 146.2312, "EPHEMERIS_TYPE": 0, "CLASSIFICATION_TYPE": "U", "NORAD_CAT_ID": 66703, "ELEMENT_SET_NO": 999, "REV_AT_EPOCH": 416, "BSTAR": 0.00022018, "MEAN_MOTION_DOT": 4.328e-05, "MEAN_MOTION_DDOT": 0}, "tle": {"line1": "1 66703U 25276AP  25360.19190381  .00004328  00000+0  22018-3 0  9994", "line2": "2 66703  97.4401  71.7168 0001120 213.8850 146.2312 15.17356954  4166"}}, "geometry": {"type": "Point", "coordinates": [66.42425249798744, 36.22519097590949]}}, {"type": "Feature", "properties": {"norad_id": 66704, "name": "FLOCK 4H-1", "group": "last-30-days", "lat": 75.39308889336755, "lon": -77.97741045021695, "alt_km": 505.26127885768074, "timestamp": "2025-12-26T09:30:52.341140+00:00", "meta": {"OBJECT_NAME": "FLOCK 4H-1", "OBJECT_ID": "2025-276AQ", "EPOCH": "2025-12-26T01:09:18.540864", "MEAN_MOTION": 15.18199501, "ECCENTRICITY": 0.0001656, "INCLINATION": 97.438, "RA_OF_ASC_NODE": 71.5943, "ARG_OF_PERICENTER": 285.8602, "MEAN_ANOMALY": 74.2449, "EPHEMERIS_TYPE": 0, "CLASSIFICATION_TYPE": "U", "NORAD_CAT_ID": 66704, "ELEMENT_SET_NO": 999, "REV_AT_EPOCH": 414, "BSTAR": 0.00049698, "MEAN_MOTION_DOT": 0.00010102, "MEAN_MOTION_DDOT": 0}, "tle": {"line1": "1 66704U 25276AQ  25360.04813126  .00010102  00000+0  49698-3 0  9998", "line2": "2 66704  97.4380  71.5943 0001656 285.8602  74.2449 15.18199501  4143"}}, "geometry": {"type": "Point", "coordinates": [-77.97741045021695, 75.39308889336755]}}, {"type": "Feature", "properties": {"norad_id": 66705, "name": "FLOCK 4H-2", "group": "last-30-days", "lat": 72.848552832177, "lon": -83.02390999221132, "alt_km": 503.5926782281804, "timestamp": "2025-12-26T09:30:52.341150+00:00", "meta": {"OBJECT_NAME": "FLOCK 4H-2", "OBJECT_ID": "2025-276AR", "EPOCH": "2025-12-26T04:18:21.996000", "MEAN_MOTION": 15.18183491, "ECCENTRICITY": 0.0001555, "INCLINATION": 97.437, "RA_OF_ASC_NODE": 71.7228, "ARG_OF_PERICENTER": 151.5614, "MEAN_ANOMALY": 208.5705, "EPHEMERIS_TYPE": 0, "CLASSIFICATION_TYPE": "U", "NORAD_CAT_ID": 66705, "ELEMENT_SET_NO": 999, "REV_AT_EPOCH": 416, "BSTAR": 0.00034129, "MEAN_MOTION_DOT": 6.91e-05, "MEAN_MOTION_DDOT": 0}, "tle": {"line1": "1 66705U 25276AR  25360.17942125  .00006910  00000+0  34129-3 0  9990", "line2": "2 66705  97.4370  71.7228 0001555 151.5614 208.5705 15.18183491  4161"}}, "geometry": {"type": "Point", "coordinates": [-83.02390999221132, 72.848552832177]}}, {"type": "Feature", "properties": {"norad_id": 66706, "name": "FLOCK 4H-3", "group": "last-30-days", "lat": 42.01071401050768, "lon": 65.17224447965172, "alt_km": 512.0764949775712, "timestamp": "2025-12-26T09:30:52.341160+00:00", "meta": {"OBJECT_NAME": "FLOCK 4H-3", "OBJECT_ID": "2025-276AS", "EPOCH": "2025-12-26T04:34:49.355328", "MEAN_MOTION": 15.17514743, "ECCENTRICITY": 0.0003038, "INCLINATION": 97.4438, "RA_OF_ASC_NODE": 71.7335, "ARG_OF_PERICENTER": 230.3563, "MEAN_ANOMALY": 129.7402, "EPHEMERIS_TYPE": 0, "CLASSIFICATION_TYPE": "U", "NORAD_CAT_ID": 66706, "ELEMENT_SET_NO": 999, "REV_AT_EPOCH": 416, "BSTAR": 0.00026125, "MEAN_MOTION_DOT": 5.172e-05, "MEAN_MOTION_DDOT": 0}, "tle": {"line1": "1 66706U 25276AS  25360.19084902  .00005172  00000+0  26125-3 0  9999", "line2": "2 66706  97.4438  71.7335 0003038 230.3563 129.7402 15.17514743  4168"}}, "geometry": {"type": "Point", "coordinates": [65.17224447965172, 42.01071401050768]}}]}